[{"OBJECT_NAME":"NUSAT-26 (M SOMERVILLE)","OBJECT_ID":"2022-033AD","EPOCH":"2026-03-09T22:05:59.942688","MEAN_MOTION":15.38484194,"ECCENTRICITY":0.00052487,"INCLINATION":97.2405,"RA_OF_ASC_NODE":149.0176,"ARG_OF_PERICENTER":233.9732,"MEAN_ANOMALY":126.1028,"EPHEMERIS_TYPE":0,"CLASSIFICATION_TYPE":"U","NORAD_CAT_ID":52184,"ELEMENT_SET_NO":999,"REV_AT_EPOCH":8942,"BSTAR":0.00033456713,"MEAN_MOTION_DOT":0.00012634,"MEAN_MOTION_DDOT":0},{"OBJECT_NAME":"STARLINK-30075","OBJECT_ID":"2023-119Q","EPOCH":"2026-03-09T22:00:01.999584","MEAN_MOTION":15.2263159,"ECCENTRICITY":0.0001352,"INCLINATION":43.0009,"RA_OF_ASC_NODE":79.7016,"ARG_OF_PERICENTER":227.8625,"MEAN_ANOMALY":290.7917,"EPHEMERIS_TYPE":0,"CLASSIFICATION_TYPE":"U","NORAD_CAT_ID":57616,"ELEMENT_SET_NO":999,"REV_AT_EPOCH":573,"BSTAR":0.044527493,"MEAN_MOTION_DOT":0.01146651,"MEAN_MOTION_DDOT":0}]
